#aV2023 11 24  0  0  0.00000000     288 DD+AD WGS84 FIT  NGA
## 2289 432000.00000000   300.00000000 60272 0.0000000000000
+   32     1  2  3  4  5  6  7  8  9 10 11 12 13 14 15 16 17
+         18 19 20 21 22 23 24 25 26 27 28 29 30 31 32  0  0
+          0  0  0  0  0  0  0  0  0  0  0  0  0  0  0  0  0
+          0  0  0  0  0  0  0  0  0  0  0  0  0  0  0  0  0
+          0  0  0  0  0  0  0  0  0  0  0  0  0  0  0  0  0
++         2  2  2  2  2  2  2  2  2  2  2  2  2  2  2  2  2
++         2  2  2  2  2  2  2  2  2  2  2  2  2  2  2  0  0
++         0  0  0  0  0  0  0  0  0  0  0  0  0  0  0  0  0
++         0  0  0  0  0  0  0  0  0  0  0  0  0  0  0  0  0
++         0  0  0  0  0  0  0  0  0  0  0  0  0  0  0  0  0
%c cc cc ccc ccc cccc cccc cccc cccc ccccc ccccc ccccc ccccc
%c cc cc ccc ccc cccc cccc cccc cccc ccccc ccccc ccccc ccccc
%f  0.0000000  0.000000000  0.00000000000  0.000000000000000
%f  0.0000000  0.000000000  0.00000000000  0.000000000000000
%i    0    0    0    0      0      0      0      0         0
%i    0    0    0    0      0      0      0      0         0
/*      NGA, ST. LOUIS,MO.                                  
/*   EPHEMERIS COMPUTED FROM 2 DAYS OF DATA                 
/*   EPOCHA v8 SMOOTHER                                     
/*   G2139 IERS2010 SATIGS SATAPC                           
*  2023 11 24  9 45  0.00000000
P  1  -3111.897589  16065.876153 -21192.758549    163.299389                    
V  1 -24636.717340   8672.683861  10688.250455      0.002294                    
P  2  -9302.630391  17714.358661 -16859.012909   -524.757924                    
V  2 -20896.074544   8434.251701  20002.341779      0.051152                    
P  3   6414.987556  19484.993382 -17074.790675      7.172429                    
V  3 -17569.556050 -12127.152403 -20510.873208      0.260468                    
P  4   -431.437944  25853.644358   5765.765355    221.485074                    
V  4  -3969.675426   6755.983387 -30759.243006      0.103330                    
P  5   6667.334911 -13521.723813  21683.670626   -151.576386                    
V  5  22991.332207  15878.854131   2898.662426     -0.014368                    
P  6  25276.391948  -5629.492442  -6068.882637    497.427030                    
V  6  -6579.170960   4466.785927 -31084.450511     -0.105036                    
P  7  15177.486819   9475.404679  20247.379366      5.276739                    
V  7 -22447.627068  10020.450882  11959.984919     -0.098115                    
P  8  -5126.867921  25605.776875   3333.243191   -153.632302                    
V  8  -2817.113900  -4713.379051  31534.069112     -0.018763                    
P  9   8168.279907  20387.275550  14808.276896      6.429081                    
V  9  -4365.822525  18614.089353 -23137.159884      0.113974                    
P 10 -22885.205097  -9406.737814  -9901.514678    -62.623066                    
V 10  -8985.636421  -9165.628559  28595.309120     -0.015085                    
P 11  22982.003262 -12070.984233   5507.030406   -473.362918                    
V 11   7441.727378    163.555271 -30874.088604     -0.159009                    
P 12  -3645.264223 -19750.733341 -17696.970336   -450.365377                    
V 12  17290.730754  13497.570680 -18852.857308     -0.040524                    
P 13  13299.256786 -20152.438230  10614.621827    598.640897                    
V 13  -1460.261384  13974.800453  28040.355786      0.040380                    
P 14  22642.336449  12249.272174  -6878.352207    252.132566                    
V 14   4881.110082   7816.982162  29712.976048      0.106916                    
P 15   1682.300413 -26206.536367   2588.312696    100.250246                    
V 15   3922.130976   3869.440128  31047.563190      0.037823                    
P 16 -13243.650406   7925.416607  21344.934653   -416.495272                    
V 16 -20183.102903 -19111.439245  -4901.940117      0.068239                    
P 17  13572.427176   6634.215082 -21396.732394    722.904146                    
V 17  -6031.444685  27547.116218   4749.284728     -0.004046                    
P 18 -16268.128569  -7938.201374  19513.007363   -487.992286                    
V 18  22649.362666  -9783.160255  14733.874624     -0.106258                    
P 19  15740.466782  -2757.700725 -21346.242883    403.240973                    
V 19  -5714.282800  26088.723305  -7991.992641      0.052309                    
P 20  17758.802719  -5784.273429  18864.053458    400.039570                    
V 20  20380.856076  12667.341742 -15523.005603     -0.019245                    
P 21 -11927.367731  17659.209207 -14723.221375    143.429987                    
V 21 -19046.698713   6633.917132  23531.463309     -0.010226                    
P 22  21396.555044   7477.320640 -13164.792416     78.156045                    
V 22  11110.823697  13826.373472  25351.177150     -0.069255                    
P 23 -20617.088388 -16789.716285   1999.070792    104.268717                    
V 23   3287.221263   -248.125657  31850.614557      0.065321                    
P 24   7106.659962 -18544.685219 -17835.408600   -378.525112                    
V 24  20641.279468  -8226.035244  17587.029247     -0.086811                    
P 25 -15506.336236 -19858.323243  -9153.152787    478.740849                    
V 25  10381.545198   4668.891334 -28478.397535      0.016069                    
P 26 -20343.089708   1641.514576  17048.791211    214.409572                    
V 26 -17065.594410 -13810.775115 -18520.686953     -0.027651                    
P 27 -12630.308541  17697.836445  14699.484242    -74.232475                    
V 27    227.404305 -19422.537845  23584.070605     -0.051124                    
P 28 -24822.115041   4837.903612  -8148.750176    -53.435589                    
V 28   8360.222397  -6570.616122 -29458.663970     -0.089645                    
P 29  -5669.569811 -21244.533098  14781.528266   -610.136821                    
V 29   5816.977816 -18036.319421 -23718.777326      0.001250                    
P 30  22799.061653   1866.536698  13837.987689   -464.880195                    
V 30 -15142.162803   8809.712342  23703.635468      0.041126                    
P 31 -25008.528337   9595.709201    111.239876   -226.027315                    
V 31  -1307.764122  -2364.487090 -31338.664315     -0.003281                    
P 32 -14994.075225  -2091.708589 -21637.575582   -589.304045                    
V 32   3489.116108 -27702.500443     53.506823     -0.042176                    
EOF
